SPACEMOBILE-003         
1 61045U 24163A   26177.81235899  .00001689  00000+0  90246-4 0  9998
2 61045  52.9744 265.1828 0005991 141.0621 219.0806 15.20822722 99230
SPACEMOBILE-005         
1 61046U 24163B   26187.32459636 -.00004321  00000+0 -17865-3 0  9996
2 61046  52.9788 221.3760 0009297 169.9979 190.1202 15.20800178100677
SPACEMOBILE-001         
1 61047U 24163C   26187.32317152  .00002002  00000+0  10425-3 0  9990
2 61047  52.9749 221.0989 0007631 167.6942 192.4240 15.20821763100670
SPACEMOBILE-002         
1 61048U 24163D   26187.37294858  .00008058  00000+0  37425-3 0  9999
2 61048  52.9751 220.9105 0006847 168.3739 191.7414 15.20867854100689
SPACEMOBILE-004         
1 61049U 24163E   26186.89536546  .00015654  00000+0  71381-3 0  9998
2 61049  52.9649 222.8932 0007122 193.0409 167.0402 15.20802887100612
SPACEMOBILE-001 DEB     
1 62369U 24163F   26187.32614844  .00008616  00000+0  25856-3 0  9997
2 62369  52.9928 189.2038 0006037 219.8039 140.2519 15.35276855 89446
SPACEMOBILE-002 DEB     
1 62370U 24163G   26187.28659060  .00020362  00000+0  45405-3 0  9997
2 62370  52.9414 174.0973 0004464 252.9237 107.1278 15.43570529101317
SPACEMOBILE-003 DEB     
1 62371U 24163H   26187.37228976  .00020637  00000+0  49566-3 0  9993
2 62371  52.9690 180.4222 0005654 205.4454 154.6272 15.41327145 94840
SPACEMOBILE-004 DEB     
1 62372U 24163J   26187.25670802  .00015475  00000+0  38372-3 0  9997
2 62372  52.9830 180.5604 0002977 226.3701 133.7056 15.40583538 97899
SPACEMOBILE-005 DEB     
1 62373U 24163K   26187.40930839  .00009403  00000+0  28768-3 0  9996
2 62373  52.9737 193.6851 0006061 198.5084 161.5697 15.34545852101073
SPACEMOBILE-006         
1 67232U 25309A   26187.32639228  .00001526  00000+0  88042-4 0  9997
2 67232  52.9956 243.9643 0010698 186.3482 173.7378 15.18642197 29501
SPACEMOBILE-008         
1 69589U 26139A   26187.36610353  .00000636  00000+0  52792-4 0  9992
2 69589  52.9937 175.4925 0004623  34.9781 325.1513 15.12793299  2880
SPACEMOBILE-009         
1 69590U 26139B   26187.30137227  .00000634  00000+0  52811-4 0  9992
2 69590  52.9928 175.7964 0004833  29.9181 330.2086 15.12686534  2873
SPACEMOBILE-010         
1 69591U 26139C   26187.36957048  .00000663  00000+0  54645-4 0  9999
2 69591  52.9932 175.5121 0004712  21.1213 338.9971 15.12517817  2895
